[
    {
        "Altitude(m)": 624792.7934696714,
        "Argument of Periapsis(deg)": 0.0,
        "Eccentricity": 0.0,
        "Inclination(deg)": 60.0,
        "Latitude(deg)": -59.147152442109224,
        "Longitude(deg)": -30.9734622328921,
        "Mean Anomaly(deg)": -98.18179999999998,
        "RAAN(deg)": 175.0,
        "Satellite Name": "Test1 786",
        "Satellite Number": 786,
        "Semi-Major Axis(m)": 6980739.136638005,
        "Time(s)": 0
    },
    {
        "Altitude(m)": 624842.18491759,
        "Argument of Periapsis(deg)": 0.00010418945913296404,
        "Eccentricity": 0.0,
        "Inclination(deg)": 60.0,
        "Latitude(deg)": -59.289234422661785,
        "Longitude(deg)": -29.843955282670414,
        "Mean Anomaly(deg)": -97.56169385453813,
        "RAAN(deg)": 174.99957995086024,
        "Satellite Name": "Test1 786",
        "Satellite Number": 786,
        "Semi-Major Axis(m)": 6980739.136638005,
        "Time(s)": 10
    }
]